{
  "type": "FeatureCollection",
  "features": [
    {
      "type": "Feature",
      "properties": {
        "norad_id": 27954,
        "name": "GALAXY 13 (HORIZONS-1)",
        "group": "intelsat",
        "lat": 0.6270559800821276,
        "lon": -134.6472872384484,
        "alt_km": 35779.305423777216,
        "timestamp": "2025-12-26T18:39:31.939863+00:00",
        "meta_object_name": "GALAXY 13 (HORIZONS-1)",
        "meta_object_id": "2003-044A",
        "meta_epoch": "2025-12-26T11:53:43.073952",
        "meta_mean_motion": 1.00272501,
        "meta_eccentricity": 0.00022993,
        "meta_inclination": 0.9724,
        "meta_ra_of_asc_node": 86.2926,
        "meta_arg_of_pericenter": 187.4398,
        "meta_mean_anomaly": 209.9098,
        "meta_ephemeris_type": 0,
        "meta_classification_type": "U",
        "meta_norad_cat_id": 27954,
        "meta_element_set_no": 999,
        "meta_rev_at_epoch": 4484,
        "meta_bstar": 0,
        "meta_mean_motion_dot": 1.54e-06,
        "meta_mean_motion_ddot": 0,
        "tle_line1": "1 27954U 03044A   25360.49563743  .00000154  00000+0  00000+0 0  9993",
        "tle_line2": "2 27954   0.9724  86.2926 0002299 187.4398 209.9098  1.00272501 44841"
      },
      "geometry": {
        "type": "Point",
        "coordinates": [
          -134.6472872384484,
          0.6270559800821276
        ]
      }
    },
    {
      "type": "Feature",
      "properties": {
        "norad_id": 28358,
        "name": "INTELSAT 10-02",
        "group": "intelsat",
        "lat": -0.009310324899272856,
        "lon": 14.451453547735039,
        "alt_km": 35784.99110531587,
        "timestamp": "2025-12-26T18:39:31.939876+00:00",
        "meta_object_name": "INTELSAT 10-02",
        "meta_object_id": "2004-022A",
        "meta_epoch": "2025-12-26T08:51:38.739168",
        "meta_mean_motion": 1.0027058,
        "meta_eccentricity": 0.00012469,
        "meta_inclination": 0.0178,
        "meta_ra_of_asc_node": 41.2908,
        "meta_arg_of_pericenter": 258.9062,
        "meta_mean_anomaly": 286.8755,
        "meta_ephemeris_type": 0,
        "meta_classification_type": "U",
        "meta_norad_cat_id": 28358,
        "meta_element_set_no": 999,
        "meta_rev_at_epoch": 7882,
        "meta_bstar": 0,
        "meta_mean_motion_dot": 1.1e-07,
        "meta_mean_motion_ddot": 0,
        "tle_line1": "1 28358U 04022A   25360.36919837  .00000011  00000+0  00000+0 0  9996",
        "tle_line2": "2 28358   0.0178  41.2908 0001246 258.9062 286.8755  1.00270580 78822"
      },
      "geometry": {
        "type": "Point",
        "coordinates": [
          14.451453547735039,
          -0.009310324899272856
        ]
      }
    },
    {
      "type": "Feature",
      "properties": {
        "norad_id": 28626,
        "name": "XM-3 (RHYTHM)",
        "group": "intelsat",
        "lat": -0.053914900135081566,
        "lon": 62.97012709343229,
        "alt_km": 36157.10952863736,
        "timestamp": "2025-12-26T18:39:31.939889+00:00",
        "meta_object_name": "XM-3 (RHYTHM)",
        "meta_object_id": "2005-008A",
        "meta_epoch": "2025-12-26T04:42:51.380064",
        "meta_mean_motion": 0.98950411,
        "meta_eccentricity": 0.00022371,
        "meta_inclination": 0.2074,
        "meta_ra_of_asc_node": 82.2895,
        "meta_arg_of_pericenter": 272.1799,
        "meta_mean_anomaly": 221.5062,
        "meta_ephemeris_type": 0,
        "meta_classification_type": "U",
        "meta_norad_cat_id": 28626,
        "meta_element_set_no": 999,
        "meta_rev_at_epoch": 4088,
        "meta_bstar": 0,
        "meta_mean_motion_dot": 8.6e-07,
        "meta_mean_motion_ddot": 0,
        "tle_line1": "1 28626U 05008A   25360.19642801  .00000086  00000+0  00000+0 0  9996",
        "tle_line2": "2 28626   0.2074  82.2895 0002237 272.1799 221.5062  0.98950411 40889"
      },
      "geometry": {
        "type": "Point",
        "coordinates": [
          62.97012709343229,
          -0.053914900135081566
        ]
      }
    },
    {
      "type": "Feature",
      "properties": {
        "norad_id": 28659,
        "name": "DIRECTV 8",
        "group": "intelsat",
        "lat": -0.016899601112151524,
        "lon": -103.66380068210493,
        "alt_km": 35774.47537781943,
        "timestamp": "2025-12-26T18:39:31.939901+00:00",
        "meta_object_name": "DIRECTV 8",
        "meta_object_id": "2005-019A",
        "meta_epoch": "2025-12-26T09:14:16.477152",
        "meta_mean_motion": 1.00271765,
        "meta_eccentricity": 0.00031342,
        "meta_inclination": 0.0135,
        "meta_ra_of_asc_node": 57.3028,
        "meta_arg_of_pericenter": 228.1399,
        "meta_mean_anomaly": 189.2168,
        "meta_ephemeris_type": 0,
        "meta_classification_type": "U",
        "meta_norad_cat_id": 28659,
        "meta_element_set_no": 999,
        "meta_rev_at_epoch": 7534,
        "meta_bstar": 0,
        "meta_mean_motion_dot": 2.3e-07,
        "meta_mean_motion_ddot": 0,
        "tle_line1": "1 28659U 05019A   25360.38491293  .00000023  00000+0  00000+0 0  9993",
        "tle_line2": "2 28659   0.0135  57.3028 0003134 228.1399 189.2168  1.00271765 75344"
      },
      "geometry": {
        "type": "Point",
        "coordinates": [
          -103.66380068210493,
          -0.016899601112151524
        ]
      }
    },
    {
      "type": "Feature",
      "properties": {
        "norad_id": 28702,
        "name": "GALAXY 28 (G-28)",
        "group": "intelsat",
        "lat": -1.5999967771927521,
        "lon": -65.27094019386868,
        "alt_km": 35685.78781802657,
        "timestamp": "2025-12-26T18:39:31.939913+00:00",
        "meta_object_name": "GALAXY 28 (G-28)",
        "meta_object_id": "2005-022A",
        "meta_epoch": "2025-12-26T11:40:12.062208",
        "meta_mean_motion": 1.00599644,
        "meta_eccentricity": 0.00034567,
        "meta_inclination": 2.855,
        "meta_ra_of_asc_node": 81.1219,
        "meta_arg_of_pericenter": 160.9204,
        "meta_mean_anomaly": 307.2288,
        "meta_ephemeris_type": 0,
        "meta_classification_type": "U",
        "meta_norad_cat_id": 28702,
        "meta_element_set_no": 999,
        "meta_rev_at_epoch": 5024,
        "meta_bstar": 0,
        "meta_mean_motion_dot": -2.33e-06,
        "meta_mean_motion_ddot": 0,
        "tle_line1": "1 28702U 05022A   25360.48625072 -.00000233  00000+0  00000+0 0  9995",
        "tle_line2": "2 28702   2.8550  81.1219 0003456 160.9204 307.2288  1.00599644 50242"
      },
      "geometry": {
        "type": "Point",
        "coordinates": [
          -65.27094019386868,
          -1.5999967771927521
        ]
      }
    },
    {
      "type": "Feature",
      "properties": {
        "norad_id": 29236,
        "name": "GALAXY 16 (G-16)",
        "group": "intelsat",
        "lat": 0.02212924048253311,
        "lon": -83.61782958134184,
        "alt_km": 35774.87376518534,
        "timestamp": "2025-12-26T18:39:31.939925+00:00",
        "meta_object_name": "GALAXY 16 (G-16)",
        "meta_object_id": "2006-023A",
        "meta_epoch": "2025-12-26T14:16:23.522880",
        "meta_mean_motion": 1.00271426,
        "meta_eccentricity": 0.00026731,
        "meta_inclination": 0.044,
        "meta_ra_of_asc_node": 195.1491,
        "meta_arg_of_pericenter": 82.4387,
        "meta_mean_anomaly": 292.8373,
        "meta_ephemeris_type": 0,
        "meta_classification_type": "U",
        "meta_norad_cat_id": 29236,
        "meta_element_set_no": 999,
        "meta_rev_at_epoch": 7124,
        "meta_bstar": 0,
        "meta_mean_motion_dot": -1.05e-06,
        "meta_mean_motion_ddot": 0,
        "tle_line1": "1 29236U 06023A   25360.59471670 -.00000105  00000+0  00000+0 0  9993",
        "tle_line2": "2 29236   0.0440 195.1491 0002673  82.4387 292.8373  1.00271426 71243"
      },
      "geometry": {
        "type": "Point",
        "coordinates": [
          -83.61782958134184,
          0.02212924048253311
        ]
      }
    },
    {
      "type": "Feature",
      "properties": {
        "norad_id": 29494,
        "name": "DIRECTV 9S",
        "group": "intelsat",
        "lat": -0.39942281579931355,
        "lon": -85.81791405433493,
        "alt_km": 35773.22915803998,
        "timestamp": "2025-12-26T18:39:31.939940+00:00",
        "meta_object_name": "DIRECTV 9S",
        "meta_object_id": "2006-043A",
        "meta_epoch": "2025-12-26T11:22:08.462784",
        "meta_mean_motion": 1.00271472,
        "meta_eccentricity": 0.00030901,
        "meta_inclination": 1.9736,
        "meta_ra_of_asc_node": 83.0647,
        "meta_arg_of_pericenter": 197.4585,
        "meta_mean_anomaly": 244.0274,
        "meta_ephemeris_type": 0,
        "meta_classification_type": "U",
        "meta_norad_cat_id": 29494,
        "meta_element_set_no": 999,
        "meta_rev_at_epoch": 4965,
        "meta_bstar": 0,
        "meta_mean_motion_dot": -9.2e-07,
        "meta_mean_motion_ddot": 0,
        "tle_line1": "1 29494U 06043A   25360.47370906 -.00000092  00000+0  00000+0 0  9993",
        "tle_line2": "2 29494   1.9736  83.0647 0003090 197.4585 244.0274  1.00271472 49656"
      },
      "geometry": {
        "type": "Point",
        "coordinates": [
          -85.81791405433493,
          -0.39942281579931355
        ]
      }
    }
  ]
}